#dP2019  6 12  0  0  0.00000000      96 __u+U IGS08 FIT  IAC
## 2057 259200.00000000   900.00000000 58646 0.0000000000000
+   97   C01C02C03C04C05C06C07C08C09C10C11C12C13C14C16E01E02
+        E03E04E05E07E08E09E11E12E13E14E15E18E19E21E24E25E26
+        E27E30E31E33E36G01G02G03G04G05G06G07G08G09G10G11G12
+        G13G14G15G16G17G18G19G20G21G22G23G24G25G26G27G28G29
+        G30G31G32J01J02J03R01R02R03R04R05R07R08R09R10R11R13
+        R14R15R16R17R18R19R20R21R22R23R24R26  0  0  0  0  0
++        13 13 13 13 13  8  8  8  8  8  7  7  9  7  8  4  4
++         4  5  5  4  4  4  5  4  4  4  4  4  4  4  4  4  4
++         4  4  4  4  5  3  3  3  4  3  3  3  3  3  3  3  3
++         3  3  3  3  3  3  3  3  3  3  3  3  3  3  3  3  3
++         3  3  3  8  8  8  5  5  5  5  5  5  5  5  5  7  6
++         5  5  6  5  5  6  6  5  5  5  6  8  0  0  0  0  0
%c M  cc GPS ccc cccc cccc cccc cccc ccccc ccccc ccccc ccccc
%c cc cc ccc ccc cccc cccc cccc cccc ccccc ccccc ccccc ccccc
%f  1.2500000  1.025000000  0.00000000000  0.000000000000000
%f  0.0000000  0.000000000  0.00000000000  0.000000000000000
%i    0    0    0    0      0      0      0      0         0
%i    0    0    0    0      0      0      0      0         0
/* INFORMATION & ANALYSIS CENTER (IAC)            FINAL DATA
/* S/V CLOCKS ARE ALIGNED TO GPS & GLONASS TIME RESPECTIVELY
/* USING THE BROADCAST EPHEMERIS                            
/* PCV:IGS14_2056 OL/AL:FES2004  NONE     YN ORB:CoN CLK:CoN
*  2019 06 12 15 30  0.00000000
PC01 -32342.493559  27048.063087  -1038.473782    704.166629
PC02   4387.201282  41925.266650    977.797795    101.071772
PC03 -14782.281468  39521.579082   -270.299056    521.116944
PC04 -39624.203029  14419.876890   -553.138025   -203.814891
PC05  21971.569409  36023.269996    809.417372   -245.760339
PC06  -7721.751450  27647.147922  31343.883359    905.312417
PC07 -23581.645778  24323.023790 -25249.946082    147.501369
PC08 -17778.069555  37915.605796  -3385.091644    164.753490
PC09   6367.419833  36254.836075  21100.400076    836.560542
PC10  -5484.923590  26540.961281 -32239.661648   -837.891944
PC11   9245.942303  25874.291666   4749.848274    280.940007
PC12  -8758.525060  17995.858630 -19354.438273    758.057158
PC13  -8099.979638  39864.502304  10622.941151   -772.811143
PC14   3075.332558  16938.067933  22040.169029    568.589567
PC16  -4058.601365  29365.215958  30085.521399   -921.387826
PE01   1029.572659 -17327.783083  23972.363273   -624.708089
PE02   -969.509679  17316.434822 -23989.070055     64.514124
PE03   9039.551019  22672.003158  16744.702573   -176.562449
PE04 -23138.334926 -18459.792361    340.746726   -301.378246
PE05 -10451.334470  13619.562577  24123.235307   -475.691605
PE07  23729.930489   3357.650026 -17350.128250   -205.894561
PE08  23306.042613  18230.985362   -411.222298   6340.946614
PE09 -23698.831484  -3217.726441  17465.897888   6410.950632
PE11 -16780.433882   5662.611509 -23728.394503   5678.295241
PE12 -11816.387899 -16810.617805 -21296.810615   6350.015890
PE13  16673.948134  -5555.181682  23819.005335    388.437960
PE14 -15076.547340  14913.370894 -24718.771501   -602.695768
PE15  11991.720721  16427.788073  21513.031219    907.092186
PE18   8045.089981 -14483.405679  16689.757870   -699.275426
PE19  -7313.095389 -22242.457237 -18097.034743     -5.809868
PE21  20793.207953 -16920.402961  12536.559435   -538.702356
PE24 -28245.897670   6549.633614   5912.689374   6032.197324
PE25 -20851.904587  16904.559611 -12481.906919   1775.362167
PE26  11864.922996 -24276.744627  12084.674181   4461.491146
PE27  28194.402385  -6495.800779  -6239.964747    450.681272
PE30  19207.411868   7710.325990 -21172.611664   4795.912487
PE31 -19043.181421  -7714.960297  21315.387768   -465.555184
PE33   -270.333561 -28847.679931  -6597.697092   -469.956512
PE36 -11597.573791  24369.375490 -12165.136272    700.602609
PG01  13989.140184 -22232.500189   2270.933074    -39.353999
PG02 -17250.267939   5776.554310 -18695.577886   -235.675685
PG03  14913.141167 -12814.125000 -17856.454845    185.775547
PG04 -10538.262804 -24056.528554  -3961.492619    167.160454
PG05 -26550.600986   2231.464607   1154.434483      0.566944
PG06 -11815.186777  -9263.326116 -21864.071270    179.888761
PG07   4197.865771 -23596.060746  11170.654883    -43.060488
PG08  12072.227610  -8989.738356  21907.890425   -147.170329
PG09  -6017.911887 -23613.343473 -10592.487016    393.028525
PG10  16525.532491  11633.554251  17400.140537     18.286875
PG11   9551.773292 -22182.846569  10801.685970   -586.110320
PG12 -17204.148948  10800.810689 -17235.218056    233.807278
PG13 -16288.073993  -1135.113121  20850.349108    -59.392161
PG14  17519.953799  15793.243199 -12066.341386    -76.392860
PG15 -11387.270404  11055.753255  21010.629382   -307.482632
PG16  26725.292470    449.689531   1725.616398    -47.517297
PG17 -14956.551194 -21469.928646  -4420.380327     70.538203
PG18  16638.594725 -17432.107503  10526.287604     61.339240
PG19 -16997.867723 -16583.824447 -12127.101664   -307.467326
PG20   7070.542251  14676.168889  20894.121263    525.336652
PG21   1668.868026  22265.093193  15299.918744   -174.560714
PG22  21028.937573 -10910.521173 -11694.746130   -715.919356
PG23   4995.129538 -17540.879140 -18827.568544   -182.092902
PG24 -14698.456679  21118.241284   5690.332863    -67.360399
PG25  -3426.686281  15033.969502 -21814.262549   -765.068073
PG26  24734.626356   4881.942962  -8655.145590    225.185345
PG27  17732.495175   3924.009749  19376.470992   -156.037887
PG28 -14797.494273 -13165.086583  18253.704339    767.498533
PG29   1355.401375  22529.242976 -14031.522779    178.217263
PG30  -4334.394390 -18705.842896  18295.246677   -122.537030
PG31  13170.622961   7639.974109 -21761.190826     31.595380
PG32  16987.624464  19677.393108  -5683.827730    -46.648933
PJ01 -28831.390226  22626.572202  25986.428133   -289.128715
PJ02 -35059.303102  23080.328565    126.279996     -0.276709
PJ03 -19691.773976  23615.219368 -24271.801811      0.825502
PR01  20607.250545  13474.865760   6640.258493     45.222292
PR02  21365.653533   3651.440775 -13444.614911    373.167185
PR03   8609.591718  -7793.351409 -22668.925600     -3.389324
PR04  -9727.167451 -14684.041967 -18421.453030    309.848921
PR05 -21536.496966 -12980.562583  -4211.166174     29.909715
PR07  -8046.384758   8152.976889  22829.327724    -21.653249
PR08   8962.765782  14614.676356  18948.751193     17.284855
PR09 -22201.641074  10286.381078   7347.453448     74.682278
PR10 -18181.991827  16070.722247  -8021.811099     52.002857
PR11  -2751.824515  13992.678684 -21148.887269    -69.205649
PR13  21812.235077  -9392.893003  -9315.713256    -24.805652
PR14  17842.550947 -16311.732716   8121.097616     39.879197
PR15   3643.838277 -14179.930716  20906.323652    102.496025
PR16 -12952.526738  -3723.932964  21609.920905      8.624122
PR17   6113.185589 -19261.907446  15590.939903    235.184371
PR18  -1485.271954 -25430.795597   -332.839449     -3.516714
PR19  -7791.271420 -18183.821048 -16106.357892    -35.906691
PR20 -10373.866179   1540.989585 -23250.771939   -381.028993
PR21  -5823.304206  19692.188376 -15120.979485    -53.561168
PR22   2632.180816  25247.361226   3125.810559    -23.603510
PR23   9485.143023  13328.461056  19562.110350    233.940818
PR24  10212.779827  -3687.540743  23051.352652   -181.462764
PR26 -10531.631329  -1464.072119 -23178.576596     -7.015682
EOF
